FENGYUN 3D              
1 43010U 17072A   26176.88622848 -.00000050  00000+0 -18332-5 0  9991
2 43010  99.0126 151.4654 0002358  48.7240 311.4138 14.19740938446221
NOAA 20 (JPSS-1)        
1 43013U 17073A   26176.81212720  .00000042  00000+0  40738-4 0  9995
2 43013  98.7772 116.1981 0000582 132.3526 227.7700 14.19513260445692
GOES 17                 
1 43226U 18022A   26176.79248214 -.00000173  00000+0  00000+0 0  9999
2 43226   0.9588  85.5668 0000668  22.9670   1.1720  1.00272890 30512
SENTINEL-3B             
1 43437U 18039A   26176.81568856  .00000094  00000+0  56727-4 0  9994
2 43437  98.6245 244.2242 0000747 105.6935 254.4328 14.26736998425356
FENGYUN 2H              
1 43491U 18050A   26176.82585709 -.00000121  00000+0  00000+0 0  9994
2 43491   3.0541  78.9793 0001670 124.8067  86.8260  1.00269807 29522
METOP-C                 
1 43689U 18087A   26176.79607859  .00000080  00000+0  56155-4 0  9990
2 43689  98.6641 236.2423 0002026 118.4923 241.6459 14.21514219396050
GEO-KOMPSAT-2A          
1 43823U 18100A   26176.83556382 -.00000333  00000+0  00000+0 0  9990
2 43823   0.0442 157.6311 0002457 293.4522 251.9424  1.00270592 27711
METEOR-M2 2             
1 44387U 19038A   26176.88494373  .00000003  00000+0  21310-4 0  9998
2 44387  98.9145 164.2985 0001721  35.6917 324.4376 14.24367658362535
ARKTIKA-M 1             
1 47719U 21016A   26175.46896265 -.00000298  00000+0  00000+0 0  9993
2 47719  63.2470  56.5720 7291000 269.9787  14.5750  2.00620016 38936
FENGYUN 3E              
1 49008U 21062A   26176.86912839 -.00000244  00000+0 -94106-4 0  9995
2 49008  98.7495 180.1801 0002815  71.7334 288.4149 14.19903571257814
GOES 18                 
1 51850U 22021A   26176.64045823  .00000107  00000+0  00000+0 0  9996
2 51850   0.0156 178.5997 0000588 306.8718 241.8605  1.00272756  6678
NOAA 21 (JPSS-2)        
1 54234U 22150A   26176.84473758  .00000035  00000+0  37350-4 0  9995
2 54234  98.7060 115.4885 0002172 140.5266 219.6069 14.19538004187776
METEOSAT-12 (MTG-I1)    
1 54743U 22170C   26176.73881244  .00000003  00000+0  00000+0 0  9995
2 54743   0.7479  24.3575 0003627  71.4856  83.6593  1.00275175 13069
TIANMU-1 03             
1 55973U 23039A   26176.78023932  .00018127  00000+0  35417-3 0  9993
2 55973  97.5232 351.0873 0003999  78.6541 281.5158 15.47514662182166
TIANMU-1 04             
1 55974U 23039B   26176.76638304  .00019035  00000+0  36402-3 0  9991
2 55974  97.5170 350.2270 0004457  72.1875 287.9861 15.48121058182175
TIANMU-1 05             
1 55975U 23039C   26176.76142398  .00018131  00000+0  35517-3 0  9997
2 55975  97.5213 350.6796 0003988  93.9819 266.1887 15.47438340182146
TIANMU-1 06             
1 55976U 23039D   26176.77029904  .00018996  00000+0  36454-3 0  9996
2 55976  97.5223 351.3330 0004166  88.8330 271.3397 15.48023025182178
FENGYUN 3G              
1 56232U 23055A   26176.85818081  .00026759  00000+0  42612-3 0  9990
2 56232  49.9932 301.3324 0007263 332.8310  27.2276 15.52997803181353
METEOR-M2 3             
1 57166U 23091A   26176.88125691 -.00000002  00000+0  17874-4 0  9995
2 57166  98.6079 231.6817 0004775 134.0528 226.1044 14.24047413155752
TIANMU-1 07             
1 57399U 23101A   26176.86483372  .00007295  00000+0  25446-3 0  9999
2 57399  97.2594 227.3338 0004336 103.7374 256.4350 15.29901529162973
TIANMU-1 08             
1 57400U 23101B   26176.83145161  .00007708  00000+0  26862-3 0  9992
2 57400  97.2583 227.0706 0005696  94.4090 265.7801 15.29905895162964
TIANMU-1 09             
1 57401U 23101C   26176.88009007  .00007623  00000+0  26544-3 0  9999
2 57401  97.2541 226.5294 0004893 107.1567 253.0210 15.29939942162979
TIANMU-1 10             
1 57402U 23101D   26176.84789338  .00007186  00000+0  25053-3 0  9996
2 57402  97.2621 227.5573 0006435 104.0669 256.1287 15.29911250162962
FENGYUN 3F              
1 57490U 23111A   26176.85284069  .00000033  00000+0  35822-4 0  9996
2 57490  98.6834 246.7001 0001555  86.9371 273.1983 14.19940383150095
ARKTIKA-M 2             
1 58584U 23198A   26174.74078844  .00000167  00000+0  00000+0 0  9997
2 58584  63.2421 153.6337 6904949 267.3888  18.7567  2.00611379 18452
TIANMU-1 11             
1 58645U 23205A   26176.83433539  .00006174  00000+0  23500-3 0  9990
2 58645  97.3447 198.2554 0007886 346.0149  14.0870 15.27078065138849
TIANMU-1 12             
1 58646U 23205B   26176.87042642  .00006996  00000+0  26625-3 0  9999
2 58646  97.3435 198.0449 0005711 330.0160  30.0752 15.27045919138837
TIANMU-1 13             
1 58647U 23205C   26176.83790859  .00006173  00000+0  23635-3 0  9991
2 58647  97.3463 198.2868 0005111 303.5710  56.5040 15.26897530138821
TIANMU-1 14             
1 58648U 23205D   26176.88839450  .00006215  00000+0  23758-3 0  9991
2 58648  97.3400 197.5114 0005999 309.1253  50.9452 15.26942745138832
TIANMU-1 19             
1 58660U 23208A   26176.84546208  .00009180  00000+0  30241-3 0  9999
2 58660  97.4507 293.1900 0003441 286.2971  73.7891 15.31695267138653
TIANMU-1 20             
1 58661U 23208B   26176.87653545  .00009294  00000+0  29492-3 0  9998
2 58661  97.4449 293.8656 0005575 296.0989  63.9679 15.32885599138758
