OBJECT_NAME,OBJECT_ID,EPOCH,MEAN_MOTION,ECCENTRICITY,INCLINATION,RA_OF_ASC_NODE,ARG_OF_PERICENTER,MEAN_ANOMALY,EPHEMERIS_TYPE,CLASSIFICATION_TYPE,NORAD_CAT_ID,ELEMENT_SET_NO,REV_AT_EPOCH,BSTAR,MEAN_MOTION_DOT,MEAN_MOTION_DDOT
FENGYUN 3D,2017-072A,2026-06-25T21:16:10.140672,14.19740938,.0002358,99.0126,151.4654,48.7240,311.4138,0,U,43010,999,44622,-.18332E-5,-.5E-6,0
NOAA 20 (JPSS-1),2017-073A,2026-06-25T19:29:27.790080,14.19513260,.0000582,98.7772,116.1981,132.3526,227.7700,0,U,43013,999,44569,.40738E-4,.42E-6,0
GOES 17,2018-022A,2026-06-25T19:01:10.456896,1.00272890,.0000668,0.9588,85.5668,22.9670,1.1720,0,U,43226,999,3051,0,-.173E-5,0
SENTINEL-3B,2018-039A,2026-06-25T19:34:35.491584,14.26736998,.0000747,98.6245,244.2242,105.6935,254.4328,0,U,43437,999,42535,.56727E-4,.94E-6,0
FENGYUN 2H,2018-050A,2026-06-25T19:49:14.052576,1.00269807,.000167,3.0541,78.9793,124.8067,86.8260,0,U,43491,999,2952,0,-.121E-5,0
METOP-C,2018-087A,2026-06-25T19:06:21.190176,14.21514219,.0002026,98.6641,236.2423,118.4923,241.6459,0,U,43689,999,39605,.56155E-4,.8E-6,0
GEO-KOMPSAT-2A,2018-100A,2026-06-25T20:03:12.714048,1.00270592,.0002457,0.0442,157.6311,293.4522,251.9424,0,U,43823,999,2771,0,-.333E-5,0
METEOR-M2 2,2019-038A,2026-06-25T21:14:19.138272,14.24367658,.0001721,98.9145,164.2985,35.6917,324.4376,0,U,44387,999,36253,.2131E-4,.3E-7,0
ARKTIKA-M 1,2021-016A,2026-06-24T11:15:18.372960,2.00620016,.7291,63.2470,56.5720,269.9787,14.5750,0,U,47719,999,3893,0,-.298E-5,0
FENGYUN 3E,2021-062A,2026-06-25T20:51:32.692896,14.19903571,.0002815,98.7495,180.1801,71.7334,288.4149,0,U,49008,999,25781,-.94106E-4,-.244E-5,0
GOES 18,2022-021A,2026-06-25T15:22:15.591072,1.00272756,.0000588,0.0156,178.5997,306.8718,241.8605,0,U,51850,999,667,0,.107E-5,0
NOAA 21 (JPSS-2),2022-150A,2026-06-25T20:16:25.326912,14.19538004,.0002172,98.7060,115.4885,140.5266,219.6069,0,U,54234,999,18777,.3735E-4,.35E-6,0
METEOSAT-12 (MTG-I1),2022-170C,2026-06-25T17:43:53.394816,1.00275175,.0003627,0.7479,24.3575,71.4856,83.6593,0,U,54743,999,1306,0,.3E-7,0
TIANMU-1 03,2023-039A,2026-06-25T18:43:32.677248,15.47514662,.0003999,97.5232,351.0873,78.6541,281.5158,0,U,55973,999,18216,.35417E-3,.18127E-3,0
TIANMU-1 04,2023-039B,2026-06-25T18:23:35.494656,15.48121058,.0004457,97.5170,350.2270,72.1875,287.9861,0,U,55974,999,18217,.36402E-3,.19035E-3,0
TIANMU-1 05,2023-039C,2026-06-25T18:16:27.031872,15.47438340,.0003988,97.5213,350.6796,93.9819,266.1887,0,U,55975,999,18214,.35517E-3,.18131E-3,0
TIANMU-1 06,2023-039D,2026-06-25T18:29:13.837056,15.48023025,.0004166,97.5223,351.3330,88.8330,271.3397,0,U,55976,999,18217,.36454E-3,.18996E-3,0
FENGYUN 3G,2023-055A,2026-06-25T20:35:46.821984,15.52997803,.0007263,49.9932,301.3324,332.8310,27.2276,0,U,56232,999,18135,.42612E-3,.26759E-3,0
METEOR-M2 3,2023-091A,2026-06-25T21:09:00.597024,14.24047413,.0004775,98.6079,231.6817,134.0528,226.1044,0,U,57166,999,15575,.17874E-4,-.2E-7,0
TIANMU-1 07,2023-101A,2026-06-25T20:45:21.633408,15.29901529,.0004336,97.2594,227.3338,103.7374,256.4350,0,U,57399,999,16297,.25446E-3,.7295E-4,0
TIANMU-1 08,2023-101B,2026-06-25T19:57:17.419104,15.29905895,.0005696,97.2583,227.0706,94.4090,265.7801,0,U,57400,999,16296,.26862E-3,.7708E-4,0
TIANMU-1 09,2023-101C,2026-06-25T21:07:19.782048,15.29939942,.0004893,97.2541,226.5294,107.1567,253.0210,0,U,57401,999,16297,.26544E-3,.7623E-4,0
TIANMU-1 10,2023-101D,2026-06-25T20:20:57.988032,15.29911250,.0006435,97.2621,227.5573,104.0669,256.1287,0,U,57402,999,16296,.25053E-3,.7186E-4,0
FENGYUN 3F,2023-111A,2026-06-25T20:28:05.435616,14.19940383,.0001555,98.6834,246.7001,86.9371,273.1983,0,U,57490,999,15009,.35822E-4,.33E-6,0
ARKTIKA-M 2,2023-198A,2026-06-23T17:46:44.121216,2.00611379,.69049491,63.2421,153.6337,267.3888,18.7567,0,U,58584,999,1845,0,.167E-5,0
TIANMU-1 11,2023-205A,2026-06-25T20:01:26.577696,15.27078065,.0007886,97.3447,198.2554,346.0149,14.0870,0,U,58645,999,13884,.235E-3,.6174E-4,0
TIANMU-1 12,2023-205B,2026-06-25T20:53:24.842688,15.27045919,.0005711,97.3435,198.0449,330.0160,30.0752,0,U,58646,999,13883,.26625E-3,.6996E-4,0
TIANMU-1 13,2023-205C,2026-06-25T20:06:35.302176,15.26897530,.0005111,97.3463,198.2868,303.5710,56.5040,0,U,58647,999,13882,.23635E-3,.6173E-4,0
TIANMU-1 14,2023-205D,2026-06-25T21:19:17.284800,15.26942745,.0005999,97.3400,197.5114,309.1253,50.9452,0,U,58648,999,13883,.23758E-3,.6215E-4,0
TIANMU-1 19,2023-208A,2026-06-25T20:17:27.923712,15.31695267,.0003441,97.4507,293.1900,286.2971,73.7891,0,U,58660,999,13865,.30241E-3,.918E-4,0
TIANMU-1 20,2023-208B,2026-06-25T21:02:12.662880,15.32885599,.0005575,97.4449,293.8656,296.0989,63.9679,0,U,58661,999,13875,.29492E-3,.9294E-4,0
